<?xml version="1.0" encoding="UTF-8"?>
<ndm xmlns:xsi="http://www.w3.org/2001/XMLSchema-instance" xsi:noNamespaceSchemaLocation="https://sanaregistry.org/r/ndmxml_unqualified/ndmxml-2.0.0-master-2.0.xsd">
<omm id="CCSDS_OMM_VERS" version="2.0">
<header><CREATION_DATE/><ORIGINATOR/></header><body><segment><metadata><OBJECT_NAME>KUIPER-00104</OBJECT_NAME><OBJECT_ID>2025-171L</OBJECT_ID><CENTER_NAME>EARTH</CENTER_NAME><REF_FRAME>TEME</REF_FRAME><TIME_SYSTEM>UTC</TIME_SYSTEM><MEAN_ELEMENT_THEORY>SGP4</MEAN_ELEMENT_THEORY></metadata><data><meanElements><EPOCH>2025-12-01T08:00:08.000352</EPOCH><MEAN_MOTION>14.91237842</MEAN_MOTION><ECCENTRICITY>.00039572</ECCENTRICITY><INCLINATION>51.8950</INCLINATION><RA_OF_ASC_NODE>232.3270</RA_OF_ASC_NODE><ARG_OF_PERICENTER>199.3288</ARG_OF_PERICENTER><MEAN_ANOMALY>169.6852</MEAN_ANOMALY></meanElements><tleParameters><EPHEMERIS_TYPE>0</EPHEMERIS_TYPE><CLASSIFICATION_TYPE>U</CLASSIFICATION_TYPE><NORAD_CAT_ID>65142</NORAD_CAT_ID><ELEMENT_SET_NO>999</ELEMENT_SET_NO><REV_AT_EPOCH>446</REV_AT_EPOCH><BSTAR>-.25548281E-2</BSTAR><MEAN_MOTION_DOT>-.25822E-3</MEAN_MOTION_DOT><MEAN_MOTION_DDOT>0</MEAN_MOTION_DDOT></tleParameters></data></segment></body></omm>
<omm id="CCSDS_OMM_VERS" version="2.0">
<header><CREATION_DATE/><ORIGINATOR/></header><body><segment><metadata><OBJECT_NAME>KUIPER-00105</OBJECT_NAME><OBJECT_ID>2025-171M</OBJECT_ID><CENTER_NAME>EARTH</CENTER_NAME><REF_FRAME>TEME</REF_FRAME><TIME_SYSTEM>UTC</TIME_SYSTEM><MEAN_ELEMENT_THEORY>SGP4</MEAN_ELEMENT_THEORY></metadata><data><meanElements><EPOCH>2025-12-01T03:26:19.822272</EPOCH><MEAN_MOTION>14.80011418</MEAN_MOTION><ECCENTRICITY>.00130433</ECCENTRICITY><INCLINATION>51.8995</INCLINATION><RA_OF_ASC_NODE>241.4234</RA_OF_ASC_NODE><ARG_OF_PERICENTER>136.2798</ARG_OF_PERICENTER><MEAN_ANOMALY>223.9200</MEAN_ANOMALY></meanElements><tleParameters><EPHEMERIS_TYPE>0</EPHEMERIS_TYPE><CLASSIFICATION_TYPE>U</CLASSIFICATION_TYPE><NORAD_CAT_ID>65143</NORAD_CAT_ID><ELEMENT_SET_NO>999</ELEMENT_SET_NO><REV_AT_EPOCH>1819</REV_AT_EPOCH><BSTAR>.75587825E-3</BSTAR><MEAN_MOTION_DOT>.5561E-4</MEAN_MOTION_DOT><MEAN_MOTION_DDOT>0</MEAN_MOTION_DDOT></tleParameters></data></segment></body></omm>
<omm id="CCSDS_OMM_VERS" version="2.0">
<header><CREATION_DATE/><ORIGINATOR/></header><body><segment><metadata><OBJECT_NAME>KUIPER-00106</OBJECT_NAME><OBJECT_ID>2025-171N</OBJECT_ID><CENTER_NAME>EARTH</CENTER_NAME><REF_FRAME>TEME</REF_FRAME><TIME_SYSTEM>UTC</TIME_SYSTEM><MEAN_ELEMENT_THEORY>SGP4</MEAN_ELEMENT_THEORY></metadata><data><meanElements><EPOCH>2025-12-01T03:59:22.407648</EPOCH><MEAN_MOTION>14.96344030</MEAN_MOTION><ECCENTRICITY>.00099263</ECCENTRICITY><INCLINATION>51.8932</INCLINATION><RA_OF_ASC_NODE>242.4377</RA_OF_ASC_NODE><ARG_OF_PERICENTER>129.7195</ARG_OF_PERICENTER><MEAN_ANOMALY>230.4650</MEAN_ANOMALY></meanElements><tleParameters><EPHEMERIS_TYPE>0</EPHEMERIS_TYPE><CLASSIFICATION_TYPE>U</CLASSIFICATION_TYPE><NORAD_CAT_ID>65144</NORAD_CAT_ID><ELEMENT_SET_NO>999</ELEMENT_SET_NO><REV_AT_EPOCH>1818</REV_AT_EPOCH><BSTAR>.7760939E-3</BSTAR><MEAN_MOTION_DOT>.8636E-4</MEAN_MOTION_DOT><MEAN_MOTION_DDOT>0</MEAN_MOTION_DDOT></tleParameters></data></segment></body></omm>
<omm id="CCSDS_OMM_VERS" version="2.0">
<header><CREATION_DATE/><ORIGINATOR/></header><body><segment><metadata><OBJECT_NAME>KUIPER-00107</OBJECT_NAME><OBJECT_ID>2025-171P</OBJECT_ID><CENTER_NAME>EARTH</CENTER_NAME><REF_FRAME>TEME</REF_FRAME><TIME_SYSTEM>UTC</TIME_SYSTEM><MEAN_ELEMENT_THEORY>SGP4</MEAN_ELEMENT_THEORY></metadata><data><meanElements><EPOCH>2025-12-01T08:00:08.000352</EPOCH><MEAN_MOTION>15.11112271</MEAN_MOTION><ECCENTRICITY>.00066768</ECCENTRICITY><INCLINATION>51.8862</INCLINATION><RA_OF_ASC_NODE>226.6085</RA_OF_ASC_NODE><ARG_OF_PERICENTER>180.6589</ARG_OF_PERICENTER><MEAN_ANOMALY>12.1770</MEAN_ANOMALY></meanElements><tleParameters><EPHEMERIS_TYPE>0</EPHEMERIS_TYPE><CLASSIFICATION_TYPE>U</CLASSIFICATION_TYPE><NORAD_CAT_ID>65145</NORAD_CAT_ID><ELEMENT_SET_NO>999</ELEMENT_SET_NO><REV_AT_EPOCH>374</REV_AT_EPOCH><BSTAR>-.26789155E-1</BSTAR><MEAN_MOTION_DOT>-.428782E-2</MEAN_MOTION_DOT><MEAN_MOTION_DDOT>0</MEAN_MOTION_DDOT></tleParameters></data></segment></body></omm>
<omm id="CCSDS_OMM_VERS" version="2.0">
<header><CREATION_DATE/><ORIGINATOR/></header><body><segment><metadata><OBJECT_NAME>KUIPER-00108</OBJECT_NAME><OBJECT_ID>2025-171Q</OBJECT_ID><CENTER_NAME>EARTH</CENTER_NAME><REF_FRAME>TEME</REF_FRAME><TIME_SYSTEM>UTC</TIME_SYSTEM><MEAN_ELEMENT_THEORY>SGP4</MEAN_ELEMENT_THEORY></metadata><data><meanElements><EPOCH>2025-12-01T02:45:33.475392</EPOCH><MEAN_MOTION>14.79992898</MEAN_MOTION><ECCENTRICITY>.00092295</ECCENTRICITY><INCLINATION>51.9025</INCLINATION><RA_OF_ASC_NODE>236.4848</RA_OF_ASC_NODE><ARG_OF_PERICENTER>147.2694</ARG_OF_PERICENTER><MEAN_ANOMALY>212.8842</MEAN_ANOMALY></meanElements><tleParameters><EPHEMERIS_TYPE>0</EPHEMERIS_TYPE><CLASSIFICATION_TYPE>U</CLASSIFICATION_TYPE><NORAD_CAT_ID>65146</NORAD_CAT_ID><ELEMENT_SET_NO>999</ELEMENT_SET_NO><REV_AT_EPOCH>1826</REV_AT_EPOCH><BSTAR>.54363283E-3</BSTAR><MEAN_MOTION_DOT>.3932E-4</MEAN_MOTION_DOT><MEAN_MOTION_DDOT>0</MEAN_MOTION_DDOT></tleParameters></data></segment></body></omm>
<omm id="CCSDS_OMM_VERS" version="2.0">
<header><CREATION_DATE/><ORIGINATOR/></header><body><segment><metadata><OBJECT_NAME>KUIPER-00109</OBJECT_NAME><OBJECT_ID>2025-171R</OBJECT_ID><CENTER_NAME>EARTH</CENTER_NAME><REF_FRAME>TEME</REF_FRAME><TIME_SYSTEM>UTC</TIME_SYSTEM><MEAN_ELEMENT_THEORY>SGP4</MEAN_ELEMENT_THEORY></metadata><data><meanElements><EPOCH>2025-12-01T08:00:08.000352</EPOCH><MEAN_MOTION>14.92627133</MEAN_MOTION><ECCENTRICITY>.00127426</ECCENTRICITY><INCLINATION>51.9058</INCLINATION><RA_OF_ASC_NODE>230.8858</RA_OF_ASC_NODE><ARG_OF_PERICENTER>165.0882</ARG_OF_PERICENTER><MEAN_ANOMALY>184.1233</MEAN_ANOMALY></meanElements><tleParameters><EPHEMERIS_TYPE>0</EPHEMERIS_TYPE><CLASSIFICATION_TYPE>U</CLASSIFICATION_TYPE><NORAD_CAT_ID>65147</NORAD_CAT_ID><ELEMENT_SET_NO>999</ELEMENT_SET_NO><REV_AT_EPOCH>478</REV_AT_EPOCH><BSTAR>-.34775335E-2</BSTAR><MEAN_MOTION_DOT>-.36303E-3</MEAN_MOTION_DOT><MEAN_MOTION_DDOT>0</MEAN_MOTION_DDOT></tleParameters></data></segment></body></omm>
<omm id="CCSDS_OMM_VERS" version="2.0">
<header><CREATION_DATE/><ORIGINATOR/></header><body><segment><metadata><OBJECT_NAME>KUIPER-00110</OBJECT_NAME><OBJECT_ID>2025-171S</OBJECT_ID><CENTER_NAME>EARTH</CENTER_NAME><REF_FRAME>TEME</REF_FRAME><TIME_SYSTEM>UTC</TIME_SYSTEM><MEAN_ELEMENT_THEORY>SGP4</MEAN_ELEMENT_THEORY></metadata><data><meanElements><EPOCH>2025-12-01T03:32:09.717216</EPOCH><MEAN_MOTION>14.76824981</MEAN_MOTION><ECCENTRICITY>.00116411</ECCENTRICITY><INCLINATION>51.8980</INCLINATION><RA_OF_ASC_NODE>243.6172</RA_OF_ASC_NODE><ARG_OF_PERICENTER>140.9225</ARG_OF_PERICENTER><MEAN_ANOMALY>219.2579</MEAN_ANOMALY></meanElements><tleParameters><EPHEMERIS_TYPE>0</EPHEMERIS_TYPE><CLASSIFICATION_TYPE>U</CLASSIFICATION_TYPE><NORAD_CAT_ID>65148</NORAD_CAT_ID><ELEMENT_SET_NO>999</ELEMENT_SET_NO><REV_AT_EPOCH>1815</REV_AT_EPOCH><BSTAR>.7706376E-3</BSTAR><MEAN_MOTION_DOT>.5251E-4</MEAN_MOTION_DOT><MEAN_MOTION_DDOT>0</MEAN_MOTION_DDOT></tleParameters></data></segment></body></omm>
<omm id="CCSDS_OMM_VERS" version="2.0">
<header><CREATION_DATE/><ORIGINATOR/></header><body><segment><metadata><OBJECT_NAME>KUIPER-00111</OBJECT_NAME><OBJECT_ID>2025-171T</OBJECT_ID><CENTER_NAME>EARTH</CENTER_NAME><REF_FRAME>TEME</REF_FRAME><TIME_SYSTEM>UTC</TIME_SYSTEM><MEAN_ELEMENT_THEORY>SGP4</MEAN_ELEMENT_THEORY></metadata><data><meanElements><EPOCH>2025-12-01T04:51:55.259424</EPOCH><MEAN_MOTION>14.79953149</MEAN_MOTION><ECCENTRICITY>.00096791</ECCENTRICITY><INCLINATION>51.8985</INCLINATION><RA_OF_ASC_NODE>248.5813</RA_OF_ASC_NODE><ARG_OF_PERICENTER>146.2234</ARG_OF_PERICENTER><MEAN_ANOMALY>213.9347</MEAN_ANOMALY></meanElements><tleParameters><EPHEMERIS_TYPE>0</EPHEMERIS_TYPE><CLASSIFICATION_TYPE>U</CLASSIFICATION_TYPE><NORAD_CAT_ID>65149</NORAD_CAT_ID><ELEMENT_SET_NO>999</ELEMENT_SET_NO><REV_AT_EPOCH>1809</REV_AT_EPOCH><BSTAR>.19375349E-2</BSTAR><MEAN_MOTION_DOT>.14597E-3</MEAN_MOTION_DOT><MEAN_MOTION_DDOT>0</MEAN_MOTION_DDOT></tleParameters></data></segment></body></omm>

</ndm>
