KUIPER-00104            
1 65142U 25171L   25335.33342593 -.00025822  00000+0 -25548-2 0  9990
2 65142  51.8950 232.3270 0003957 199.3288 169.6852 14.91237842  4463
KUIPER-00105            
1 65143U 25171M   25335.14328498  .00005561  00000+0  75588-3 0  9994
2 65143  51.8995 241.4234 0013043 136.2798 223.9200 14.80011418 18190
KUIPER-00106            
1 65144U 25171N   25335.16623157  .00008636  00000+0  77609-3 0  9999
2 65144  51.8932 242.4377 0009926 129.7195 230.4650 14.96344030 18181
KUIPER-00107            
1 65145U 25171P   25335.33342593 -.00428782  00000+0 -26789-1 0  9992
2 65145  51.8862 226.6085 0006676 180.6589  12.1770 15.11112271  3748
KUIPER-00108            
1 65146U 25171Q   25335.11497078  .00003932  00000+0  54363-3 0  9993
2 65146  51.9025 236.4848 0009229 147.2694 212.8842 14.79992898 18266
KUIPER-00109            
1 65147U 25171R   25335.33342593 -.00036303  00000+0 -34775-2 0  9993
2 65147  51.9058 230.8858 0012742 165.0882 184.1233 14.92627133  4782
KUIPER-00110            
1 65148U 25171S   25335.14733469  .00005251  00000+0  77064-3 0  9994
2 65148  51.8980 243.6172 0011641 140.9225 219.2579 14.76824981 18158
KUIPER-00111            
1 65149U 25171T   25335.20272291  .00014597  00000+0  19375-2 0  9996
2 65149  51.8985 248.5813 0009679 146.2234 213.9347 14.79953149 18096
